AETHER-2                
1 58299U 23174AV  26068.71793741  .00008341  00000+0  26166-3 0  9990
2 58299  97.3931 151.9008 0008630 139.5247 220.6639 15.33264165129982
STARLINK-34636          
1 64915U 25157M   26068.23485151  .00036183  00000+0  12265-2 0  9994
2 64915  53.1617 347.8170 0001852 143.2793 216.8335 15.30235884 36056
